TRANSPORTER-10 OBJECT AD
1 59125U 24043AD  26068.86032889  .00011954  00000+0  36311-3 0  9997
2 59125  97.5470 207.3753 0008984 221.4908 138.5653 15.34189901112026
STARLINK-31239          
1 60093U 24117C   26068.30456725 -.00001039  00000+0 -22952-4 0  9995
2 60093  53.1627  39.1898 0001428  89.7347 270.3818 15.30188017 96823
